STARLINK-2342           
1 47883U 21021Z   26056.15869056  .00006623  00000+0  23554-3 0  9993
2 47883  53.1578 326.3318 0000932  60.9934 299.1160 15.30200632274500
STARLINK-2343           
1 47884U 21021AA  26057.07247827  .00010729  00000+0  73639-3 0  9993
2 47884  53.0542 333.7728 0002565 132.8966 227.2239 15.06484799274292
STARLINK-2346           
1 47887U 21021AD  26057.25002315  .00083023  00000+0  49722-2 0  9999
2 47887  53.0677 332.9416 0002285  80.9200  80.7704 15.10285382  5835
STARLINK-2354           
1 47894U 21021AL  26057.11156946  .00005522  00000+0  20342-3 0  9998
2 47894  53.1577 321.8649 0001502  93.7109 266.4063 15.29375165274411
STARLINK-2355           
1 47895U 21021AM  26055.95258367  .00001725  00000+0  72104-4 0  9994
2 47895  53.1573 327.3034 0001441  95.6794 264.4371 15.29358521274271
STARLINK-2356           
1 47896U 21021AN  26056.77553991  .00000685  00000+0  35258-4 0  9990
2 47896  53.1607 336.3318 0001255  85.2818 274.8327 15.30188719274199
STARLINK-2358           
1 47898U 21021AQ  26057.11505460  .00002944  00000+0  11434-3 0  9998
2 47898  53.1559 321.8487 0001829  81.5735 278.5472 15.29352975274420
STARLINK-2361           
1 47901U 21021AT  26057.08520170  .00003839  00000+0  14169-3 0  9996
2 47901  53.1589 309.2955 0001279  77.9403 282.1742 15.30197801274640
STARLINK-2363           
1 47903U 21021AV  26057.25002315  .01003772  00000+0  17156-1 0  9997
2 47903  53.1794 307.7204 0001228  90.7665  66.4825 15.48081562  5818
STARLINK-2364           
1 47904U 21021AW  26057.08727557 -.00009806  00000+0 -31909-3 0  9990
2 47904  53.1586 309.1846 0000646 343.0897  17.0082 15.30230610274636
STARLINK-2367           
1 47907U 21021AZ  26057.25002315  .00113115  00000+0  67394-2 0  9993
2 47907  53.0673 332.9496 0002405  83.4794  93.4278 15.10286081  5780
STARLINK-2370           
1 47910U 21021BC  26057.16965166  .00007853  00000+0  28388-3 0  9991
2 47910  53.1548 321.6143 0000942  97.5192 262.5915 15.29388796274491
STARLINK-2371           
1 47911U 21021BD  26057.14741561 -.00000380  00000+0 -69969-6 0  9994
2 47911  53.1590 334.6070 0001116  96.7806 263.3322 15.30182045274143
STARLINK-2378           
1 47916U 21021BJ  26056.10336141  .00008964  00000+0  31450-3 0  9993
2 47916  53.1602 313.8217 0001245  66.5621 293.5511 15.30188715274489
STARLINK-2405           
1 47919U 21021BM  26057.26647557  .00115540  00000+0  74344-2 0  9997
2 47919  53.0573 332.8854 0003408  32.0757 328.0439 15.07453117274317
STARLINK-1647           
1 47978U 21024B   26057.18446468  .00100395  00000+0  33729-2 0  9998
2 47978  53.1594  25.8453 0001459  82.1968 277.9199 15.30040019272866
