[{"OBJECT_NAME":"STARLINK-2342","OBJECT_ID":"2021-021Z","EPOCH":"2026-02-25T03:48:30.864384","MEAN_MOTION":15.30200632,"ECCENTRICITY":9.324e-5,"INCLINATION":53.1578,"RA_OF_ASC_NODE":326.3318,"ARG_OF_PERICENTER":60.9934,"MEAN_ANOMALY":299.116,"EPHEMERIS_TYPE":0,"CLASSIFICATION_TYPE":"U","NORAD_CAT_ID":47883,"ELEMENT_SET_NO":999,"REV_AT_EPOCH":27450,"BSTAR":0.00023553884,"MEAN_MOTION_DOT":6.623e-5,"MEAN_MOTION_DDOT":0},{"OBJECT_NAME":"STARLINK-2343","OBJECT_ID":"2021-021AA","EPOCH":"2026-02-26T01:44:22.122528","MEAN_MOTION":15.06484799,"ECCENTRICITY":0.00025654,"INCLINATION":53.0542,"RA_OF_ASC_NODE":333.7728,"ARG_OF_PERICENTER":132.8966,"MEAN_ANOMALY":227.2239,"EPHEMERIS_TYPE":0,"CLASSIFICATION_TYPE":"U","NORAD_CAT_ID":47884,"ELEMENT_SET_NO":999,"REV_AT_EPOCH":27429,"BSTAR":0.00073638811,"MEAN_MOTION_DOT":0.00010729,"MEAN_MOTION_DDOT":0},{"OBJECT_NAME":"STARLINK-2346","OBJECT_ID":"2021-021AD","EPOCH":"2026-02-26T06:00:02.000160","MEAN_MOTION":15.10285382,"ECCENTRICITY":0.00022851,"INCLINATION":53.0677,"RA_OF_ASC_NODE":332.9416,"ARG_OF_PERICENTER":80.92,"MEAN_ANOMALY":80.7704,"EPHEMERIS_TYPE":0,"CLASSIFICATION_TYPE":"U","NORAD_CAT_ID":47887,"ELEMENT_SET_NO":999,"REV_AT_EPOCH":583,"BSTAR":0.0049721864,"MEAN_MOTION_DOT":0.00083023,"MEAN_MOTION_DDOT":0},{"OBJECT_NAME":"STARLINK-2354","OBJECT_ID":"2021-021AL","EPOCH":"2026-02-26T02:40:39.601344","MEAN_MOTION":15.29375165,"ECCENTRICITY":0.00015025,"INCLINATION":53.1577,"RA_OF_ASC_NODE":321.8649,"ARG_OF_PERICENTER":93.7109,"MEAN_ANOMALY":266.4063,"EPHEMERIS_TYPE":0,"CLASSIFICATION_TYPE":"U","NORAD_CAT_ID":47894,"ELEMENT_SET_NO":999,"REV_AT_EPOCH":27441,"BSTAR":0.00020341785,"MEAN_MOTION_DOT":5.522e-5,"MEAN_MOTION_DDOT":0},{"OBJECT_NAME":"STARLINK-2355","OBJECT_ID":"2021-021AM","EPOCH":"2026-02-24T22:51:43.229088","MEAN_MOTION":15.29358521,"ECCENTRICITY":0.00014413,"INCLINATION":53.1573,"RA_OF_ASC_NODE":327.3034,"ARG_OF_PERICENTER":95.6794,"MEAN_ANOMALY":264.4371,"EPHEMERIS_TYPE":0,"CLASSIFICATION_TYPE":"U","NORAD_CAT_ID":47895,"ELEMENT_SET_NO":999,"REV_AT_EPOCH":27427,"BSTAR":7.2103724e-5,"MEAN_MOTION_DOT":1.725e-5,"MEAN_MOTION_DDOT":0},{"OBJECT_NAME":"STARLINK-2356","OBJECT_ID":"2021-021AN","EPOCH":"2026-02-25T18:36:46.648224","MEAN_MOTION":15.30188719,"ECCENTRICITY":0.00012559,"INCLINATION":53.1607,"RA_OF_ASC_NODE":336.3318,"ARG_OF_PERICENTER":85.2818,"MEAN_ANOMALY":274.8327,"EPHEMERIS_TYPE":0,"CLASSIFICATION_TYPE":"U","NORAD_CAT_ID":47896,"ELEMENT_SET_NO":999,"REV_AT_EPOCH":27419,"BSTAR":3.5258168e-5,"MEAN_MOTION_DOT":6.85e-6,"MEAN_MOTION_DDOT":0},{"OBJECT_NAME":"STARLINK-2358","OBJECT_ID":"2021-021AQ","EPOCH":"2026-02-26T02:45:40.717440","MEAN_MOTION":15.29352975,"ECCENTRICITY":0.00018293,"INCLINATION":53.1559,"RA_OF_ASC_NODE":321.8487,"ARG_OF_PERICENTER":81.5735,"MEAN_ANOMALY":278.5472,"EPHEMERIS_TYPE":0,"CLASSIFICATION_TYPE":"U","NORAD_CAT_ID":47898,"ELEMENT_SET_NO":999,"REV_AT_EPOCH":27442,"BSTAR":0.00011434105,"MEAN_MOTION_DOT":2.944e-5,"MEAN_MOTION_DDOT":0},{"OBJECT_NAME":"STARLINK-2361","OBJECT_ID":"2021-021AT","EPOCH":"2026-02-26T02:02:41.426880","MEAN_MOTION":15.30197801,"ECCENTRICITY":0.00012797,"INCLINATION":53.1589,"RA_OF_ASC_NODE":309.2955,"ARG_OF_PERICENTER":77.9403,"MEAN_ANOMALY":282.1742,"EPHEMERIS_TYPE":0,"CLASSIFICATION_TYPE":"U","NORAD_CAT_ID":47901,"ELEMENT_SET_NO":999,"REV_AT_EPOCH":27464,"BSTAR":0.00014168618,"MEAN_MOTION_DOT":3.839e-5,"MEAN_MOTION_DDOT":0},{"OBJECT_NAME":"STARLINK-2363","OBJECT_ID":"2021-021AV","EPOCH":"2026-02-26T06:00:02.000160","MEAN_MOTION":15.48081562,"ECCENTRICITY":0.00012287,"INCLINATION":53.1794,"RA_OF_ASC_NODE":307.7204,"ARG_OF_PERICENTER":90.7665,"MEAN_ANOMALY":66.4825,"EPHEMERIS_TYPE":0,"CLASSIFICATION_TYPE":"U","NORAD_CAT_ID":47903,"ELEMENT_SET_NO":999,"REV_AT_EPOCH":581,"BSTAR":0.017156209,"MEAN_MOTION_DOT":0.01003772,"MEAN_MOTION_DDOT":0},{"OBJECT_NAME":"STARLINK-2364","OBJECT_ID":"2021-021AW","EPOCH":"2026-02-26T02:05:40.609248","MEAN_MOTION":15.3023061,"ECCENTRICITY":6.466e-5,"INCLINATION":53.1586,"RA_OF_ASC_NODE":309.1846,"ARG_OF_PERICENTER":343.0897,"MEAN_ANOMALY":17.0082,"EPHEMERIS_TYPE":0,"CLASSIFICATION_TYPE":"U","NORAD_CAT_ID":47904,"ELEMENT_SET_NO":999,"REV_AT_EPOCH":27463,"BSTAR":-0.00031909412,"MEAN_MOTION_DOT":-9.806e-5,"MEAN_MOTION_DDOT":0},{"OBJECT_NAME":"STARLINK-2367","OBJECT_ID":"2021-021AZ","EPOCH":"2026-02-26T06:00:02.000160","MEAN_MOTION":15.10286081,"ECCENTRICITY":0.00024053,"INCLINATION":53.0673,"RA_OF_ASC_NODE":332.9496,"ARG_OF_PERICENTER":83.4794,"MEAN_ANOMALY":93.4278,"EPHEMERIS_TYPE":0,"CLASSIFICATION_TYPE":"U","NORAD_CAT_ID":47907,"ELEMENT_SET_NO":999,"REV_AT_EPOCH":578,"BSTAR":0.006739388,"MEAN_MOTION_DOT":0.00113115,"MEAN_MOTION_DDOT":0},{"OBJECT_NAME":"STARLINK-2370","OBJECT_ID":"2021-021BC","EPOCH":"2026-02-26T04:04:17.903424","MEAN_MOTION":15.29388796,"ECCENTRICITY":9.42e-5,"INCLINATION":53.1548,"RA_OF_ASC_NODE":321.6143,"ARG_OF_PERICENTER":97.5192,"MEAN_ANOMALY":262.5915,"EPHEMERIS_TYPE":0,"CLASSIFICATION_TYPE":"U","NORAD_CAT_ID":47910,"ELEMENT_SET_NO":999,"REV_AT_EPOCH":27449,"BSTAR":0.00028387956,"MEAN_MOTION_DOT":7.853e-5,"MEAN_MOTION_DDOT":0},{"OBJECT_NAME":"STARLINK-2371","OBJECT_ID":"2021-021BD","EPOCH":"2026-02-26T03:32:16.708704","MEAN_MOTION":15.30182045,"ECCENTRICITY":0.0001116,"INCLINATION":53.159,"RA_OF_ASC_NODE":334.607,"ARG_OF_PERICENTER":96.7806,"MEAN_ANOMALY":263.3322,"EPHEMERIS_TYPE":0,"CLASSIFICATION_TYPE":"U","NORAD_CAT_ID":47911,"ELEMENT_SET_NO":999,"REV_AT_EPOCH":27414,"BSTAR":-6.99694e-7,"MEAN_MOTION_DOT":-3.8e-6,"MEAN_MOTION_DDOT":0},{"OBJECT_NAME":"STARLINK-2378","OBJECT_ID":"2021-021BJ","EPOCH":"2026-02-25T02:28:50.425824","MEAN_MOTION":15.30188715,"ECCENTRICITY":0.00012455,"INCLINATION":53.1602,"RA_OF_ASC_NODE":313.8217,"ARG_OF_PERICENTER":66.5621,"MEAN_ANOMALY":293.5511,"EPHEMERIS_TYPE":0,"CLASSIFICATION_TYPE":"U","NORAD_CAT_ID":47916,"ELEMENT_SET_NO":999,"REV_AT_EPOCH":27448,"BSTAR":0.00031450483,"MEAN_MOTION_DOT":8.964e-5,"MEAN_MOTION_DDOT":0},{"OBJECT_NAME":"STARLINK-2405","OBJECT_ID":"2021-021BM","EPOCH":"2026-02-26T06:23:43.489248","MEAN_MOTION":15.07453117,"ECCENTRICITY":0.00034083,"INCLINATION":53.0573,"RA_OF_ASC_NODE":332.8854,"ARG_OF_PERICENTER":32.0757,"MEAN_ANOMALY":328.0439,"EPHEMERIS_TYPE":0,"CLASSIFICATION_TYPE":"U","NORAD_CAT_ID":47919,"ELEMENT_SET_NO":999,"REV_AT_EPOCH":27431,"BSTAR":0.0074344435,"MEAN_MOTION_DOT":0.0011554,"MEAN_MOTION_DDOT":0},{"OBJECT_NAME":"STARLINK-1647","OBJECT_ID":"2021-024B","EPOCH":"2026-02-26T04:25:37.748352","MEAN_MOTION":15.30040019,"ECCENTRICITY":0.00014591,"INCLINATION":53.1594,"RA_OF_ASC_NODE":25.8453,"ARG_OF_PERICENTER":82.1968,"MEAN_ANOMALY":277.9199,"EPHEMERIS_TYPE":0,"CLASSIFICATION_TYPE":"U","NORAD_CAT_ID":47978,"ELEMENT_SET_NO":999,"REV_AT_EPOCH":27286,"BSTAR":0.0033728781,"MEAN_MOTION_DOT":0.00100395,"MEAN_MOTION_DDOT":0}]
